OBJECT_NAME,OBJECT_ID,EPOCH,MEAN_MOTION,ECCENTRICITY,INCLINATION,RA_OF_ASC_NODE,ARG_OF_PERICENTER,MEAN_ANOMALY,EPHEMERIS_TYPE,CLASSIFICATION_TYPE,NORAD_CAT_ID,ELEMENT_SET_NO,REV_AT_EPOCH,BSTAR,MEAN_MOTION_DOT,MEAN_MOTION_DDOT
FORMOSAT 7-6,2019-036Q,2026-07-11T05:28:10.897824,14.96603418,.0001164,23.9963,167.5398,35.6160,324.4418,0,U,44353,999,38542,.10992E-3,.1586E-4,0
FORMOSAT 7-5,2019-036V,2026-07-11T01:43:36.261408,14.96581354,.0000508,23.9980,107.3421,113.4946,246.5608,0,U,44358,999,38593,.1108E-3,.1595E-4,0
METEOR-M2 2,2019-038A,2026-07-11T13:11:41.701344,14.24372343,.000098,98.9157,180.1956,11.0200,349.0999,0,U,44387,999,36476,.33244E-4,.31E-6,0
GLOBAL-4,2019-054E,2026-07-11T04:43:34.473792,15.66767591,.0004783,45.0052,97.6239,170.0214,190.0780,0,U,44499,999,38412,.39058E-3,.42039E-3,0
ZY-1 02D,2019-059A,2026-07-11T12:53:31.843968,14.35268340,.0003274,98.6717,254.0752,313.9221,46.1693,0,U,44528,999,35783,.89144E-4,.21E-5,0
TAURUS-1 (JINNIUZUO 1),2019-059C,2026-07-11T12:08:57.212736,14.72348752,.0007712,98.6430,358.8502,228.1731,131.8817,0,U,44530,999,36222,.62317E-3,.389E-4,0
ZHUHAI-1 03B,2019-060C,2026-07-11T12:16:33.244896,15.55479129,.0008168,97.5541,351.6188,219.5677,140.4981,0,U,44536,999,38010,.27238E-3,.18519E-3,0
ZHUHAI-1 03D,2019-060E,2026-07-11T11:46:20.061408,15.51185396,.0007242,97.5388,343.5049,205.0284,155.0617,0,U,44538,999,37984,.33051E-3,.19253E-3,0
ZHUHAI-1 03E,2019-060F,2026-07-11T12:31:46.352928,15.41842791,.0004398,97.5630,343.3309,293.6948,66.3836,0,U,44539,999,37951,.2361E-3,.9925E-4,0
GAOFEN-7,2019-072A,2026-07-11T12:50:14.895168,15.21498342,.001765,97.5711,253.2483,317.7381,42.2493,0,U,44703,999,37134,.10365E-3,.2268E-4,0
JILIN-1 GAOFEN 2A,2019-075A,2026-07-11T12:10:36.068160,15.39950409,.000552,97.4965,276.8754,9.2296,350.9050,0,U,44777,999,36862,.20992E-3,.8279E-4,0
NINGXIA-1 1,2019-076A,2026-07-11T13:14:27.921120,14.02041661,.0011635,45.0062,70.9706,273.7048,86.2456,0,U,44779,999,34127,.18689E-4,-.101E-5,0
NINGXIA-1 5,2019-076E,2026-07-11T11:49:47.502624,14.02088982,.0011403,45.0058,70.5661,264.4358,95.5176,0,U,44783,999,34118,-.27288E-4,-.172E-5,0
KL-ALPHA A,2019-077A,2026-07-11T13:03:24.454656,13.56045508,.001272,88.9241,219.9009,46.1438,314.0765,0,U,44785,999,32903,.95869E-4,.79E-6,0
CARTOSAT-3,2019-081A,2026-07-11T11:03:39.442752,15.19307467,.0013318,97.4298,253.9361,72.8824,287.3868,0,U,44804,999,36715,.12978E-3,.2677E-4,0
JILIN-1 GAOFEN 2B,2019-086A,2026-07-11T11:47:34.764576,15.20973553,.0012921,97.4878,264.3324,229.5614,130.4495,0,U,44836,999,36418,.16447E-3,.3581E-4,0
TIANQIN 1 (CAS-6),2019-093A,2026-07-11T12:15:52.801056,14.95547936,.0010274,97.7800,276.1762,339.9330,20.1485,0,U,44879,999,35568,.18957E-3,.2045E-4,0
ETRSS-1,2019-093B,2026-07-11T12:15:24.408288,14.95994788,.0010415,97.7816,276.6564,339.8558,20.2251,0,U,44880,999,35569,.20341E-3,.2224E-4,0
TIANYAN 01,2019-093C,2026-07-11T11:29:36.665376,14.86556172,.0013884,97.7523,264.1178,13.4132,346.7450,0,U,44881,999,35502,.49413E-4,.385E-5,0
TIANYAN 02,2019-093D,2026-07-11T12:20:22.606656,15.05509392,.0012042,97.7943,287.5425,303.2205,56.7866,0,U,44882,999,35627,.22136E-3,.3124E-4,0
CBERS 4A,2019-093E,2026-07-11T11:21:08.831232,14.81440888,.0001228,98.0184,259.9329,134.5267,225.6046,0,U,44883,999,35467,.10666E-3,.781E-5,0
WEILAI 1R,2019-093F,2026-07-11T12:34:57.113760,15.00850052,.0015983,97.7882,282.4538,320.9318,39.0750,0,U,44884,999,35607,.27329E-3,.3422E-4,0
FLORIPASAT-1,2019-093G,2026-07-11T12:13:10.514208,15.04127384,.0011187,97.7931,286.9231,356.8196,3.2956,0,U,44885,999,35630,.24562E-3,.3346E-4,0
SHUNTIAN,2019-093H,2026-07-11T12:00:43.932672,14.95268648,.0011385,97.8007,280.5387,350.5890,9.5116,0,U,44886,999,35581,.1117E-3,.1172E-4,0
ELEKTRO-L 3,2019-095A,2026-07-11T12:12:34.545888,1.00271254,.0001202,0.3158,82.1830,18.3718,87.9941,0,U,44903,999,2395,0,-.91E-6,0
GONETS-M 14,2019-096A,2026-07-11T12:28:17.893056,12.42870529,.0014353,82.5228,69.5545,97.7417,262.5293,0,U,44905,999,29670,-.13434E-3,-.9E-7,0
GONETS-M 15,2019-096B,2026-07-11T11:14:39.601824,12.42883147,.0015975,82.5247,70.0516,119.8599,240.4070,0,U,44906,999,29666,.41622E-3,.68E-6,0
GONETS-M 16,2019-096C,2026-07-11T11:51:51.765696,12.42892303,.0010817,82.5193,68.9764,159.1945,200.9577,0,U,44907,999,29665,-.42826E-5,.9E-7,0
