FORMOSAT 7-6            
1 44353U 19036Q   26192.22790391  .00001586  00000+0  10992-3 0  9994
2 44353  23.9963 167.5398 0001164  35.6160 324.4418 14.96603418385425
FORMOSAT 7-5            
1 44358U 19036V   26192.07194747  .00001595  00000+0  11080-3 0  9994
2 44358  23.9980 107.3421 0000508 113.4946 246.5608 14.96581354385931
METEOR-M2 2             
1 44387U 19038A   26192.54978821  .00000031  00000+0  33244-4 0  9994
2 44387  98.9157 180.1956 0000980  11.0200 349.0999 14.24372343364760
GLOBAL-4                
1 44499U 19054E   26192.19692678  .00042039  00000+0  39058-3 0  9992
2 44499  45.0052  97.6239 0004783 170.0214 190.0780 15.66767591384127
ZY-1 02D                
1 44528U 19059A   26192.53717412  .00000210  00000+0  89144-4 0  9999
2 44528  98.6717 254.0752 0003274 313.9221  46.1693 14.35268340357836
TAURUS-1 (JINNIUZUO 1)  
1 44530U 19059C   26192.50621774  .00003890  00000+0  62317-3 0  9993
2 44530  98.6430 358.8502 0007712 228.1731 131.8817 14.72348752362227
ZHUHAI-1 03B            
1 44536U 19060C   26192.51149589  .00018519  00000+0  27238-3 0  9998
2 44536  97.5541 351.6188 0008168 219.5677 140.4981 15.55479129380104
ZHUHAI-1 03D            
1 44538U 19060E   26192.49050997  .00019253  00000+0  33051-3 0  9997
2 44538  97.5388 343.5049 0007242 205.0284 155.0617 15.51185396379840
ZHUHAI-1 03E            
1 44539U 19060F   26192.52206427  .00009925  00000+0  23610-3 0  9998
2 44539  97.5630 343.3309 0004398 293.6948  66.3836 15.41842791379516
GAOFEN-7                
1 44703U 19072A   26192.53489462  .00002268  00000+0  10365-3 0  9993
2 44703  97.5711 253.2483 0017650 317.7381  42.2493 15.21498342371347
JILIN-1 GAOFEN 2A       
1 44777U 19075A   26192.50736190  .00008279  00000+0  20992-3 0  9992
2 44777  97.4965 276.8754 0005520   9.2296 350.9050 15.39950409368622
NINGXIA-1 1             
1 44779U 19076A   26192.55171205 -.00000101  00000+0  18689-4 0  9998
2 44779  45.0062  70.9706 0011635 273.7048  86.2456 14.02041661341279
NINGXIA-1 5             
1 44783U 19076E   26192.49291091 -.00000172  00000+0 -27288-4 0  9996
2 44783  45.0058  70.5661 0011403 264.4358  95.5176 14.02088982341188
KL-ALPHA A              
1 44785U 19077A   26192.54403304  .00000079  00000+0  95869-4 0  9991
2 44785  88.9241 219.9009 0012720  46.1438 314.0765 13.56045508329030
CARTOSAT-3              
1 44804U 19081A   26192.46087318  .00002677  00000+0  12978-3 0  9997
2 44804  97.4298 253.9361 0013318  72.8824 287.3868 15.19307467367154
JILIN-1 GAOFEN 2B       
1 44836U 19086A   26192.49137459  .00003581  00000+0  16447-3 0  9992
2 44836  97.4878 264.3324 0012921 229.5614 130.4495 15.20973553364186
TIANQIN 1 (CAS-6)       
1 44879U 19093A   26192.51102779  .00002045  00000+0  18957-3 0  9999
2 44879  97.7800 276.1762 0010274 339.9330  20.1485 14.95547936355680
ETRSS-1                 
1 44880U 19093B   26192.51069917  .00002224  00000+0  20341-3 0  9996
2 44880  97.7816 276.6564 0010415 339.8558  20.2251 14.95994788355696
TIANYAN 01              
1 44881U 19093C   26192.47889659  .00000385  00000+0  49413-4 0  9993
2 44881  97.7523 264.1178 0013884  13.4132 346.7450 14.86556172355026
TIANYAN 02              
1 44882U 19093D   26192.51415054  .00003124  00000+0  22136-3 0  9999
2 44882  97.7943 287.5425 0012042 303.2205  56.7866 15.05509392356274
CBERS 4A                
1 44883U 19093E   26192.47301888  .00000781  00000+0  10666-3 0  9995
2 44883  98.0184 259.9329 0001228 134.5267 225.6046 14.81440888354675
WEILAI 1R               
1 44884U 19093F   26192.52427215  .00003422  00000+0  27329-3 0  9994
2 44884  97.7882 282.4538 0015983 320.9318  39.0750 15.00850052356076
FLORIPASAT-1            
1 44885U 19093G   26192.50914947  .00003346  00000+0  24562-3 0  9997
2 44885  97.7931 286.9231 0011187 356.8196   3.2956 15.04127384356301
SHUNTIAN                
1 44886U 19093H   26192.50050848  .00001172  00000+0  11170-3 0  9995
2 44886  97.8007 280.5387 0011385 350.5890   9.5116 14.95268648355811
ELEKTRO-L 3             
1 44903U 19095A   26192.50873317 -.00000091  00000+0  00000+0 0  9997
2 44903   0.3158  82.1830 0001202  18.3718  87.9941  1.00271254 23953
GONETS-M 14             
1 44905U 19096A   26192.51965154 -.00000009  00000+0 -13434-3 0  9991
2 44905  82.5228  69.5545 0014353  97.7417 262.5293 12.42870529296709
GONETS-M 15             
1 44906U 19096B   26192.46851391  .00000068  00000+0  41622-3 0  9996
2 44906  82.5247  70.0516 0015975 119.8599 240.4070 12.42883147296667
GONETS-M 16             
1 44907U 19096C   26192.49434914  .00000009  00000+0 -42826-5 0  9993
2 44907  82.5193  68.9764 0010817 159.1945 200.9577 12.42892303296657
